NORAD_CAT_ID,OBJECT_NAME,OBJECT_TYPE,EPOCH,MEAN_MOTION,ECCENTRICITY,INCLINATION,RA_OF_ASC_NODE,ARG_OF_PERICENTER,MEAN_ANOMALY,BSTAR,MEAN_MOTION_DOT,MEAN_MOTION_DDOT,TLE_LINE0,TLE_LINE1,TLE_LINE2,SEMIMAJOR_AXIS,PERIOD,APOGEE,PERIGEE,DECAYED
49411.0,STARLINK-3162,PAYLOAD,2022-12-23 12:41:04,15.08836975,0.0002684,53.2161,81.1634,31.8249,328.2905,0.00014395,2.003e-05,0.0,0 STARLINK-3162,1 49411U 21104D   22357.52852485  .00002003  00000-0  14395-3 0  9995,2 49411  53.2161  81.1634 0002684  31.8249 328.2905 15.08836975 62895,6917.89,95.438,541.611,537.898,0.0
49411.0,STARLINK-3162,PAYLOAD,2022-12-23 17:27:14,15.08824788,0.0002673,53.2165,80.2725,29.4102,330.704,-9.4529e-05,-1.792e-05,0.0,0 STARLINK-3162,1 49411U 21104D   22357.72725101 -.00001792  00000-0 -94529-4 0  9995,2 49411  53.2165  80.2725 0002673  29.4102 330.7040 15.08824788 61840,6917.927,95.439,541.641,537.943,0.0
49411.0,STARLINK-3162,PAYLOAD,2022-12-24 04:34:56,15.08832821,0.0002686,53.2169,78.1911,28.6341,331.4798,6.433e-05,7.35e-06,0.0,0 STARLINK-3162,1 49411U 21104D   22358.19093110  .00000735  00000-0  64330-4 0  9996,2 49411  53.2169  78.1911 0002686  28.6341 331.4798 15.08832821 62999,6917.901999999999,95.438,541.625,537.909,0.0
49411.0,STARLINK-3162,PAYLOAD,2022-12-24 12:31:51,15.08844589,0.0002697,53.2163,76.7049,28.0983,332.0154,0.00037286,5.652e-05,0.0,0 STARLINK-3162,1 49411U 21104D   22358.52212800  .00005652  00000-0  37286-3 0  9994,2 49411  53.2163  76.7049 0002697  28.0983 332.0154 15.08844589 63041,6917.866,95.437,541.597,537.866,0.0
49411.0,STARLINK-3162,PAYLOAD,2022-12-24 17:18:01,15.0883634,0.0002778,53.2157,75.8128,27.0973,333.0163,0.00032541,4.894e-05,0.0,0 STARLINK-3162,1 49411U 21104D   22358.72085243  .00004894  00000-0  32541-3 0  9991,2 49411  53.2157  75.8128 0002778  27.0973 333.0163 15.08836340 63070,6917.892,95.438,541.678,537.835,0.0
49411.0,STARLINK-3162,PAYLOAD,2022-12-25 10:47:16,15.08832416,0.0002583999999999,53.2159,72.5411,26.1087,334.0035,4.3915e-05,4.1e-06,0.0,0 STARLINK-3162,1 49411U 21104D   22359.44949450  .00000410  00000-0  43915-4 0  9998,2 49411  53.2159  72.5411 0002584  26.1087 334.0035 15.08832416 62104,6917.904,95.438,541.556,537.981,0.0
49411.0,STARLINK-3162,PAYLOAD,2022-12-25 15:33:25,15.08833312,0.000268,53.2161,71.6487,26.6833,333.4296,7.433e-05,8.95e-06,0.0,0 STARLINK-3162,1 49411U 21104D   22359.64821597  .00000895  00000-0  74330-4 0  9993,2 49411  53.2161  71.6487 0002680  26.6833 333.4296 15.08833312 63212,6917.901,95.438,541.62,537.9119999999998,0.0
49411.0,STARLINK-3162,PAYLOAD,2022-12-26 12:13:26,15.08838105,0.0002732,53.2162,67.7832,28.4191,331.695,4.5773e-05,4.4e-06,0.0,0 STARLINK-3162,1 49411U 21104D   22360.50933736  .00000440  00000-0  45773-4 0  9994,2 49411  53.2162  67.7832 0002732  28.4191 331.6950 15.08838105 62264,6917.886,95.438,541.641,537.861,0.0
49411.0,STARLINK-3162,PAYLOAD,2022-12-26 16:59:35,15.08842678,0.00027,53.2161,66.8908,28.5751,331.5389,9.8224e-05,1.275e-05,0.0,0 STARLINK-3162,1 49411U 21104D   22360.70805538  .00001275  00000-0  98224-4 0  9990,2 49411  53.2161  66.8908 0002700  28.5751 331.5389 15.08842678 63373,6917.871999999999,95.437,541.605,537.869,0.0
49411.0,STARLINK-3162,PAYLOAD,2022-12-26 21:45:45,15.08851308,0.0002732,53.2162,65.9989,28.4002,331.7139,0.00023471,3.45e-05,0.0,0 STARLINK-3162,1 49411U 21104D   22360.90677142  .00003450  00000-0  23471-3 0  9998,2 49411  53.2162  65.9989 0002732  28.4002 331.7139 15.08851308 63405,6917.846,95.437,541.601,537.821,0.0
49411.0,STARLINK-3162,PAYLOAD,2022-12-27 12:04:12,15.08862738,0.0002668,53.2155,63.3226,25.6225,334.4899,0.00058384,9.022e-05,0.0,0 STARLINK-3162,1 49411U 21104D   22361.50292613  .00009022  00000-0  58384-3 0  9993,2 49411  53.2155  63.3226 0002668  25.6225 334.4899 15.08862738 62419,6917.811,95.436,541.5219999999998,537.83,0.0
49411.0,STARLINK-3162,PAYLOAD,2022-12-27 23:11:54,15.08862964,0.0002697,53.2154,61.2409,25.9158,334.1968,0.000366,5.545e-05,0.0,0 STARLINK-3162,1 49411U 21104D   22361.96660010  .00005545  00000-0  36600-3 0  9996,2 49411  53.2154  61.2409 0002697  25.9158 334.1968 15.08862964 63560,6917.81,95.436,541.5409999999998,537.809,0.0
49411.0,STARLINK-3162,PAYLOAD,2022-12-28 00:47:17,15.08861736,0.0002739,53.2156,60.9435,26.5,333.6132,0.00034351,5.186e-05,0.0,0 STARLINK-3162,1 49411U 21104D   22362.03283971  .00005186  00000-0  34351-3 0  9994,2 49411  53.2156  60.9435 0002739  26.5000 333.6132 15.08861736 62491,6917.814,95.436,541.5740000000002,537.784,0.0
49411.0,STARLINK-3162,PAYLOAD,2022-12-28 15:05:45,15.08846449,0.0003018,53.2157,58.2671,23.3394,336.7735,1.4827e-05,-5.3e-07,0.0,0 STARLINK-3162,1 49411U 21104D   22362.62900208 -.00000053  00000-0  14827-4 0  9994,2 49411  53.2157  58.2671 0003018  23.3394 336.7735 15.08846449 63663,6917.861,95.437,541.813,537.638,0.0
49411.0,STARLINK-3162,PAYLOAD,2022-12-29 10:10:24,15.08826581,0.0002983,53.2161,54.7001,27.4724,332.6425,-0.00030332,-5.111e-05,0.0,0 STARLINK-3162,1 49411U 21104D   22363.42389078 -.00005111  00000-0 -30332-3 0  9998,2 49411  53.2161  54.7001 0002983  27.4724 332.6425 15.08826581 63787,6917.920999999999,95.438,541.85,537.7230000000002,0.0
49411.0,STARLINK-3162,PAYLOAD,2022-12-30 13:11:58,15.08841206,0.0002833,53.2156,49.6431,26.3715,333.7421,0.0005842999999999,9.024e-05,0.0,0 STARLINK-3162,1 49411U 21104D   22364.54998110  .00009024  00000-0  58430-3 0  9999,2 49411  53.2156  49.6431 0002833  26.3715 333.7421 15.08841206 63951,6917.877,95.437,541.702,537.7819999999998,0.0
49411.0,STARLINK-3162,PAYLOAD,2022-12-31 03:30:25,15.08872402,0.0002936,53.2159,46.9674,26.0713,334.0426,0.0011537,0.00018138,0.0,0 STARLINK-3162,1 49411U 21104D   22365.14613181  .00018138  00000-0  11537-2 0  9990,2 49411  53.2159  46.9674 0002936  26.0713 334.0426 15.08872402 64044,6917.781,95.436,541.677,537.615,0.0
49411.0,STARLINK-3162,PAYLOAD,2022-12-31 13:02:44,15.08863351,0.0002883999999999,53.2163,45.1839,26.3418,333.7721,0.0003873,5.885e-05,0.0,0 STARLINK-3162,1 49411U 21104D   22365.54356628  .00005885  00000-0  38730-3 0  9994,2 49411  53.2163  45.1839 0002884  26.3418 333.7721 15.08863351 64104,6917.809,95.436,541.669,537.679,0.0
49411.0,STARLINK-3162,PAYLOAD,2022-12-31 19:24:16,15.08859967,0.0002935,53.2165,43.9934,25.1628,334.9506,0.00032389,4.873e-05,0.0,0 STARLINK-3162,1 49411U 21104D   22365.80852578  .00004873  00000-0  32389-3 0  9998,2 49411  53.2165  43.9934 0002935  25.1628 334.9506 15.08859967 63061,6917.819,95.436,541.715,537.654,0.0
49411.0,STARLINK-3162,PAYLOAD,2023-01-01 03:21:12,15.08844147,0.0002763,53.2169,42.5064,21.4396,338.6712,-0.00022819,-3.919e-05,0.0,0 STARLINK-3162,1 49411U 21104D   23001.13972680 -.00003919  00000-0 -22819-3 0  9998,2 49411  53.2169  42.5064 0002763  21.4396 338.6712 15.08844147 64193,6917.868,95.437,541.644,537.821,0.0
49411.0,STARLINK-3162,PAYLOAD,2023-01-01 12:53:31,15.08827991,0.0002859,53.2168,40.7234,19.9571,340.1532,-0.00012496,-2.276e-05,0.0,0 STARLINK-3162,1 49411U 21104D   23001.53717146 -.00002276  00000-0 -12496-3 0  9991,2 49411  53.2168  40.7234 0002859  19.9571 340.1532 15.08827991 64257,6917.917,95.438,541.76,537.804,0.0
49411.0,STARLINK-3162,PAYLOAD,2023-01-01 19:15:04,15.08813411,0.0003007,53.2161,39.5333,23.6226,336.4904,-9.1577e-05,-1.745e-05,0.0,0 STARLINK-3162,1 49411U 21104D   23001.80214058 -.00001745  00000-0 -91577-4 0  9993,2 49411  53.2161  39.5333 0003007  23.6226 336.4904 15.08813411 63219,6917.962,95.439,541.9069999999998,537.746,0.0
49411.0,STARLINK-3162,PAYLOAD,2023-01-02 01:36:38,15.08809336,0.0002973999999999,53.2167,38.3431,25.3198,334.7939,8.835100000000001e-05,1.117e-05,0.0,0 STARLINK-3162,1 49411U 21104D   23002.06710696  .00001117  00000-0  88351-4 0  9998,2 49411  53.2167  38.3431 0002974  25.3198 334.7939 15.08809336 64334,6917.974,95.439,541.8969999999998,537.7819999999998,0.0
49411.0,STARLINK-3162,PAYLOAD,2023-01-02 11:08:57,15.08824792,0.0002868,53.2156,36.5596,21.0265,339.0845,0.00046978,7.193e-05,0.0,0 STARLINK-3162,1 49411U 21104D   23002.46454975  .00007193  00000-0  46978-3 0  9995,2 49411  53.2156  36.5596 0002868  21.0265 339.0845 15.08824792 64397,6917.927,95.439,541.776,537.808,0.0
49411.0,STARLINK-3162,PAYLOAD,2023-01-02 19:05:52,15.08833766,0.0002898999999999,53.2157,35.073,20.2962,339.8145,0.00072288,0.00011234,0.0,0 STARLINK-3162,1 49411U 21104D   23002.79575150  .00011234  00000-0  72288-3 0  9994,2 49411  53.2157  35.0730 0002899  20.2962 339.8145 15.08833766 63369,6917.899,95.438,541.77,537.759,0.0
49411.0,STARLINK-3162,PAYLOAD,2023-01-03 03:02:48,15.08849509,0.0002865,53.2165,33.5861,21.1361,338.9749,0.00098485,0.00015425,0.0,0 STARLINK-3162,1 49411U 21104D   23003.12695033  .00015425  00000-0  98485-3 0  9998,2 49411  53.2165  33.5861 0002865  21.1361 338.9749 15.08849509 64499,6917.851,95.437,541.698,537.734,0.0
49411.0,STARLINK-3162,PAYLOAD,2023-01-03 18:56:39,15.08852203,0.0002876,53.216,30.6125,21.5725,338.5388,0.00058537,9.044e-05,0.0,0 STARLINK-3162,1 49411U 21104D   23003.78934868  .00009044  00000-0  58537-3 0  9996,2 49411  53.2160  30.6125 0002876  21.5725 338.5388 15.08852203 64596,6917.843000000003,95.437,541.698,537.719,0.0
49411.0,STARLINK-3162,PAYLOAD,2023-01-04 09:15:07,15.08855042,0.0002877,53.2159,27.9361,23.9135,336.1991,0.00071071,0.00011046,0.0,0 STARLINK-3162,1 49411U 21104D   23004.38550706  .00011046  00000-0  71071-3 0  9991,2 49411  53.2159  27.9361 0002877  23.9135 336.1991 15.08855042 64685,6917.834,95.437,541.69,537.7090000000002,0.0
49411.0,STARLINK-3162,PAYLOAD,2023-01-04 18:47:26,15.0886474,0.0002915,53.2156,26.1516,25.09800000000001,335.0154,0.00085212,0.00013309,0.0,0 STARLINK-3162,1 49411U 21104D   23004.78294187  .00013309  00000-0  85212-3 0  9999,2 49411  53.2156  26.1516 0002915  25.0980 335.0154 15.08864740 63660,6917.805,95.436,541.686,537.653,0.0
